ONEWEB-0584             
1 54651U 22166K   23053.00001157 -.01025079  00000+0 -57217+0 0  9991
2 54651  87.0456 127.8598 0009494 352.9209  80.8080 14.14268368  1300
ONEWEB-0585             
1 54652U 22166L   23053.58334491 -.00429960  00000+0 -23872+0 0  9991
2 54652  87.0498 127.6743 0008961 357.2406 176.7817 14.13486659 11827
ONEWEB-0586             
1 54653U 22166M   23053.00001157 -.00925086  00000+0 -48633+0 0  9991
2 54653  87.0614 127.8924 0008240  15.0904  16.7876 14.17170970  1303
ONEWEB-0587             
1 54654U 22166N   23053.25001157 -.00776459  00000+0 -39127+0 0  9995
2 54654  87.0695 127.7679 0009737 351.0950  49.1933 14.19387790 11784
ONEWEB-0589             
1 54655U 22166P   23053.58334491 -.00870076  00000+0 -46124+0 0  9997
2 54655  87.0845 127.6307 0012981   0.5215 114.6272 14.16515827 11835
ONEWEB-0590             
1 54656U 22166Q   23053.58334491 -.00927268  00000+0 -51180+0 0  9992
2 54656  87.0718 127.6343 0012752 355.7687   5.5856 14.14532982 11834
ONEWEB-0591             
1 54657U 22166R   23053.58334491 -.00831408  00000+0 -42853+0 0  9990
2 54657  87.0926 127.6505 0012586 358.2766 151.1112 14.18379884 11834
ONEWEB-0592             
1 54658U 22166S   23053.25001157 -.00744695  00000+0 -51955+0 0  9999
2 54658  87.0001 127.9210 0008693  18.9528 140.9072 14.01484960 11683
ONEWEB-0593             
1 54659U 22166T   23053.58334491 -.00826707  00000+0 -42362+0 0  9993
2 54659  87.0779 127.6063 0010676 355.8400 111.5634 14.18686018 11836
ONEWEB-0594             
1 54660U 22166U   23053.58334491 -.00835939  00000+0 -43131+0 0  9997
2 54660  87.0632 127.5937 0012844 353.8525 117.1757 14.18340701 11834
ONEWEB-0595             
1 54661U 22166V   23053.25001157 -.00952022  00000+0 -49762+0 0  9991
2 54661  87.0773 127.7357 0008687 356.5439 192.1038 14.17566186 11788
ONEWEB-0596             
1 54662U 22166W   23053.58334491 -.00807093  00000+0 -42793+0 0  9992
2 54662  87.0730 127.6517 0007726 353.6037 239.3256 14.16796818 11832
ONEWEB-0597             
1 54663U 22166X   23053.58334491 -.00839233  00000+0 -44406+0 0  9997
2 54663  87.0809 127.6319 0011249 358.9674  66.0171 14.17014176 11832
ONEWEB-0600             
1 54664U 22166Y   23053.58334491 -.00960683  00000+0 -54192+0 0  9995
2 54664  87.0632 127.6273 0012006 357.8914 325.6492 14.13469129 11831
ONEWEB-0601             
1 54665U 22166Z   23053.25001157 -.00647665  00000+0 -28307+0 0  9991
2 54665  87.0103 127.5176 0011946 356.0317 316.3100 14.26807153 11803
ONEWEB-0602             
1 54666U 22166AA  23053.25001157 -.00902708  00000+0 -45494+0 0  9990
2 54666  87.0596 127.6806 0010780 351.1836 290.6910 14.19340521 11792
ONEWEB-0603             
1 54667U 22166AB  23053.58334491 -.00649307  00000+0 -42465+0 0  9995
2 54667  87.0431 128.1499 0009465  21.0150 263.8521 14.05163201 11754
ONEWEB-0604             
1 54668U 22166AC  23053.58334491 -.00659286  00000+0 -45295+0 0  9997
2 54668  87.0035 127.9000 0008710  12.6608   8.8089 14.02465809 11736
ONEWEB-0605             
1 54669U 22166AD  23053.58334491 -.00626560  00000+0 -36135+0 0  9990
2 54669  87.1019 128.2449 0009048  23.1878  21.6731 14.11974642 11762
ONEWEB-0606             
1 54670U 22166AE  23053.58334491 -.00670811  00000+0 -43145+0 0  9999
2 54670  86.9757 127.6877 0008433  24.3468 288.1303 14.06191936 11758
ONEWEB-0607             
1 54671U 22166AF  23053.58334491 -.00175371  00000+0 -92145-1 0  9997
2 54671  87.0641 128.0839 0006874   9.2826 358.6224 14.15462271 11784
ONEWEB-0608             
1 54672U 22166AG  23053.58334491 -.00643269  00000+0 -34501+0 0  9994
2 54672  87.0748 128.2173 0012404 355.5396 203.6892 14.15959379 11792
ONEWEB-0610             
1 54673U 22166AH  23053.58334491 -.00669627  00000+0 -46000+0 0  9998
2 54673  87.0235 128.0124 0009606 341.9876   2.5486 14.02515558 11743
ONEWEB-0611             
1 54674U 22166AJ  23053.25001157 -.00770030  00000+0 -51867+0 0  9991
2 54674  87.0206 128.1167 0011488 353.7217 154.0888 14.03535819 11697
ONEWEB-0612             
1 54675U 22166AK  23053.58334491 -.00627675  00000+0 -44874+0 0  9994
2 54675  87.0238 127.8117 0007715  28.2517 211.6346 14.00091131 11734
ONEWEB-0615             
1 54676U 22166AL  23053.48532564 -.00072370  00000+0 -46130-1 0  9990
2 54676  87.0008 128.0373 0010526 352.8120   7.2907 14.04169428 11727
ONEWEB-0655             
1 54677U 22166AM  23052.94207886 -.00076728  00000+0 -49133-1 0  9994
2 54677  86.9819 128.2124 0009752 359.4007   0.7159 14.03951048 11642
ONEWEB-0659             
1 54678U 22166AN  23053.58334491 -.00834923  00000+0 -44169+0 0  9990
2 54678  87.0799 127.6474 0009374 355.5026 293.3986 14.17018449 11834
ONEWEB-0685             
1 54679U 22166AP  23053.58334491 -.00630243  00000+0 -45584+0 0  9992
2 54679  87.0056 128.0346 0007512  28.4516 152.0090 13.99448812 11710
ONEWEB-0712             
1 54680U 22166AQ  23053.13344219  .00003307  00000+0  43235-3 0  9992
2 54680  86.5175 125.4558 0011519 351.5694   8.5332 14.80117470 11902
ONEWEB-0714             
1 54681U 22166AR  23053.00001157 -.00884662  00000+0 -45839+0 0  9991
2 54681  87.0739 127.8200 0012613   4.6539  24.7779 14.17789155  1308
ONEWEB-0532             
1 55140U 23004A   23053.25001157 -.01216323  00000+0 -19854+0 0  9993
2 55140  86.5852 266.7831 0014461  69.1970  33.3397 14.74355433  6555
ONEWEB-0533             
1 55141U 23004B   23053.58334491 -.01570523  00000+0 -27969+0 0  9991
2 55141  86.6023 266.6342 0015281  71.6330  16.8295 14.70918191  6603
ONEWEB-0541             
1 55142U 23004C   23053.13825285  .00001189  00000+0  23143-3 0  9997
2 55142  86.7407 267.6235 0013257  69.1141 291.1489 14.62208914  6492
ONEWEB-0543             
1 55143U 23004D   23053.00001157 -.01539079  00000+0 -28068+0 0  9992
2 55143  86.6070 266.9273 0012449  75.6745  38.7167 14.69846481  1303
ONEWEB-0544             
1 55144U 23004E   23053.58334491 -.01585904  00000+0 -25530+0 0  9995
2 55144  86.5851 266.5925 0016174  77.1692 173.7870 14.75289198  6609
ONEWEB-0560             
1 55145U 23004F   23053.00001157 -.01552202  00000+0 -23661+0 0  9991
2 55145  86.5770 266.8424 0016243  77.6693 327.0339 14.77525028  1303
ONEWEB-0565             
1 55146U 23004G   23053.25001157 -.01627399  00000+0 -22980+0 0  9992
2 55146  86.5615 266.7058 0016515  79.8468 301.5389 14.80902948  6569
ONEWEB-0567             
1 55147U 23004H   23053.58334491 -.01572108  00000+0 -23495+0 0  9998
2 55147  86.5713 266.5659 0016628  78.9997 250.2000 14.78399307  6607
ONEWEB-0569             
1 55148U 23004J   23053.00001157 -.01547056  00000+0 -25142+0 0  9991
2 55148  86.5856 266.8605 0014574  73.6067 221.5773 14.74816779  1301
ONEWEB-0570             
1 55149U 23004K   23053.00001157 -.01537405  00000+0 -24765+0 0  9999
2 55149  86.5838 266.8577 0014448  76.6567 231.7426 14.75173955  1309
ONEWEB-0571             
1 55150U 23004L   23053.58334491 -.01584745  00000+0 -24711+0 0  9994
2 55150  86.5818 266.5914 0016638  78.0416 212.3109 14.76634712  6608
ONEWEB-0572             
1 55151U 23004M   23053.58334491 -.01398750  00000+0 -24385+0 0  9991
2 55151  86.6003 266.6381 0014694  74.1053  34.4001 14.71436162  6607
ONEWEB-0573             
1 55152U 23004N   23053.58334491 -.01579566  00000+0 -26851+0 0  9998
2 55152  86.5944 266.6279 0015572  73.0073  68.8079 14.72949107  6608
ONEWEB-0588             
1 55153U 23004P   23053.00001157 -.01532218  00000+0 -28316+0 0  9997
2 55153  86.6095 266.9347 0011312  78.4062  10.0990 14.69264057  1304
ONEWEB-0598             
1 55154U 23004Q   23053.58334491 -.00945889  00000+0 -25280+0 0  9999
2 55154  86.8296 267.5009 0012911  70.6219 320.0339 14.51421200  6555
ONEWEB-0599             
1 55155U 23004R   23053.58334491 -.01579501  00000+0 -27413+0 0  9995
2 55155  86.5988 266.6328 0014940  71.4029  59.5800 14.72062682  6608
ONEWEB-0614             
1 55156U 23004S   23053.25001157 -.01034936  00000+0 -27728+0 0  9997
2 55156  86.8299 267.6279 0014708  79.7515  29.2340 14.51566668  6508
ONEWEB-0616             
1 55157U 23004T   23053.58334491 -.01158145  00000+0 -18872+0 0  9993
2 55157  86.5850 266.6282 0014191  70.1475  26.5542 14.74270721  6600
ONEWEB-0617             
1 55158U 23004U   23053.58334491 -.00929059  00000+0 -24560+0 0  9994
2 55158  86.8277 267.5547 0011287  69.9129 219.9750 14.51899189  6548
ONEWEB-0618             
1 55159U 23004V   23053.58334491 -.00863392  00000+0 -12314+0 0  9996
2 55159  86.5630 266.6132 0014120  73.5784 105.9125 14.79537065  6605
ONEWEB-0619             
1 55160U 23004W   23053.00001157 -.01128330  00000+0 -16206+0 0  9996
2 55160  86.5642 266.8452 0015429  74.2114 289.1406 14.79525728  1307
ONEWEB-0620             
1 55161U 23004X   23053.58334491 -.00744044  00000+0 -19311+0 0  9995
2 55161  86.8169 267.4709 0012556  76.4004   0.1424 14.52577386  6558
ONEWEB-0621             
1 55162U 23004Y   23053.58334491 -.01255916  00000+0 -67478+0 0  9999
2 55162  87.0120 268.4042 0008541  71.6545  72.7568 14.16472064  6489
ONEWEB-0622             
1 55163U 23004Z   23053.00001157 -.00910136  00000+0 -24221+0 0  9997
2 55163  86.8282 267.7838 0012347  84.9667  15.5927 14.51514286  1304
ONEWEB-0623             
1 55164U 23004AA  23053.58334491 -.01099157  00000+0 -15294+0 0  9993
2 55164  86.5591 266.5687 0016820  76.9580 240.2989 14.80753525  6605
ONEWEB-0624             
1 55165U 23004AB  23053.58334491 -.01128981  00000+0 -15268+0 0  9993
2 55165  86.5569 266.5686 0017142  80.6735 282.8150 14.82011705  6614
ONEWEB-0625             
1 55166U 23004AC  23053.58334491 -.01129068  00000+0 -17970+0 0  9993
2 55166  86.5812 266.6223 0014599  69.4415  51.8799 14.75192678  6600
ONEWEB-0626             
1 55167U 23004AD  23053.58334491 -.01130420  00000+0 -15234+0 0  9999
2 55167  86.5537 266.5561 0016783  80.7871 289.3300 14.82166582  6618
